[{"OBJECT_NAME":"BEESAT-1","OBJECT_ID":"2009-051C","EPOCH":"2026-03-09T17:02:23.062560","MEAN_MOTION":14.61533291,"ECCENTRICITY":0.00053108,"INCLINATION":98.4027,"RA_OF_ASC_NODE":334.6934,"ARG_OF_PERICENTER":163.1503,"MEAN_ANOMALY":196.9874,"EPHEMERIS_TYPE":0,"CLASSIFICATION_TYPE":"U","NORAD_CAT_ID":35933,"ELEMENT_SET_NO":999,"REV_AT_EPOCH":87465,"BSTAR":0.00027708077,"MEAN_MOTION_DOT":1.326e-5,"MEAN_MOTION_DDOT":0},{"OBJECT_NAME":"CZ-6A DEB","OBJECT_ID":"2024-140XW","EPOCH":"2026-03-09T13:34:18.023232","MEAN_MOTION":14.53058626,"ECCENTRICITY":0.0045643,"INCLINATION":88.8812,"RA_OF_ASC_NODE":274.8415,"ARG_OF_PERICENTER":235.1745,"MEAN_ANOMALY":124.5167,"EPHEMERIS_TYPE":0,"CLASSIFICATION_TYPE":"U","NORAD_CAT_ID":61405,"ELEMENT_SET_NO":999,"REV_AT_EPOCH":7893,"BSTAR":0.0016447,"MEAN_MOTION_DOT":6.903e-5,"MEAN_MOTION_DDOT":0}]
